SL-14 R/B               
1 16496U 86006B   26062.66532654  .00000785  00000+0  81026-4 0  9999
2 16496  82.5234 265.4087 0075186 293.1762  66.1546 14.86805690148313
COSMOS 1743             
1 16719U 86034A   26062.47741506  .00035452  00000+0  47113-3 0  9992
2 16719  82.5291  80.3487 0002253 335.7563  24.3586 15.58030499179286
SL-14 R/B               
1 16792U 86046B   26062.54329486  .00000612  00000+0  67753-4 0  9996
2 16792  82.4782  85.9912 0021655 246.8752 113.0182 14.85583365125490
SL-14 R/B               
1 16882U 86055B   26062.68381201  .00000613  00000+0  67819-4 0  9998
2 16882  82.5212 132.3189 0018705 356.8629 117.9735 14.85636306118470
AJISAI (EGS)            
1 16908U 86061A   26062.78149634 -.00000074  00000+0  16477-3 0  9992
2 16908  50.0081 111.5160 0011252 271.8255 196.5801 12.44515540467262
COSMOS 1812             
1 17295U 87003A   26062.92594594  .02279208 -12226-5  75938-3 0  9999
2 17295  82.4705 202.1959 0008191 286.8200  73.2192 16.25759646143558
SL-14 R/B               
1 17567U 87024B   26062.51160943  .00000591  00000+0  64631-4 0  9990
2 17567  82.5253  98.5720 0016686 282.2797  77.6551 14.86125276 87219
COSMOS 1833             
1 17589U 87027A   26062.70158133 -.00000130  00000+0 -43476-4 0  9991
2 17589  70.9233 338.6032 0024538 222.8242 137.0968 14.13056095  9473
SL-16 R/B               
1 17590U 87027B   26062.76318739 -.00000180  00000+0 -65340-4 0  9998
2 17590  71.0018 288.9846 0003704 155.4877 204.6423 14.17166385 14500
SL-14 R/B               
1 17912U 87038B   26062.70549892  .00000563  00000+0  62506-4 0  9992
2 17912  82.5013 302.4453 0019159 179.9345 180.1877 14.85363133 78346
COSMOS 1844             
1 17973U 87041A   26062.38953810 -.00000068  00000+0 -10020-4 0  9992
2 17973  70.8994  47.4636 0029659  27.3569 332.9107 14.14553224  2692
SL-14 R/B               
1 18153U 87055B   26062.75084894  .00000785  00000+0  87581-4 0  9996
2 18153  82.5029 354.6268 0021641  36.7993 323.4704 14.85620973 69059
COSMOS 1867             
1 18187U 87060A   26062.15372900  .00000007  00000+0  40140-4 0  9998
2 18187  65.0120 325.0088 0014387 278.2415  81.7037 14.31501790 19006
SL-14 R/B               
1 18749U 88001B   26062.47629519  .00000761  00000+0  85252-4 0  9994
2 18749  82.5142 201.2028 0016604 257.9558 101.9797 14.85518630 41107
COSMOS 1933             
1 18958U 88020A   26062.52768649  .00005261  00000+0  25799-3 0  9990
2 18958  82.5095 257.0105 0003381 205.7954 154.3112 15.17917348 49296
SL-3 R/B                
1 19046U 88032B   26062.74136771  .00007262  00000+0  33954-3 0  9996
2 19046  97.5180  46.0136 0024096 253.8032 106.0551 15.19823414 51200
SL-16 R/B               
1 19120U 88039B   26062.49774189  .00000081  00000+0  60980-4 0  9991
2 19120  71.0130  81.6418 0022412 343.4793  16.5599 14.19615601957504
